[{"OBJECT_NAME":"ONEWEB-0239","OBJECT_ID":"2021-045AM","EPOCH":"2026-02-27T03:21:26.466624","MEAN_MOTION":13.15547012,"ECCENTRICITY":0.00019628,"INCLINATION":87.8947,"RA_OF_ASC_NODE":281.1811,"ARG_OF_PERICENTER":111.3011,"MEAN_ANOMALY":248.8329,"EPHEMERIS_TYPE":0,"CLASSIFICATION_TYPE":"U","NORAD_CAT_ID":48802,"ELEMENT_SET_NO":999,"REV_AT_EPOCH":22987,"BSTAR":0.00043476214,"MEAN_MOTION_DOT":1.77e-6,"MEAN_MOTION_DDOT":0},{"OBJECT_NAME":"ONEWEB-0249","OBJECT_ID":"2021-060A","EPOCH":"2026-02-27T05:41:41.525952","MEAN_MOTION":13.1659326,"ECCENTRICITY":0.0001678,"INCLINATION":87.9006,"RA_OF_ASC_NODE":250.6543,"ARG_OF_PERICENTER":97.4249,"MEAN_ANOMALY":262.7072,"EPHEMERIS_TYPE":0,"CLASSIFICATION_TYPE":"U","NORAD_CAT_ID":48967,"ELEMENT_SET_NO":999,"REV_AT_EPOCH":22514,"BSTAR":-9.7982329e-5,"MEAN_MOTION_DOT":-2.5e-7,"MEAN_MOTION_DDOT":0},{"OBJECT_NAME":"ONEWEB-0250","OBJECT_ID":"2021-060B","EPOCH":"2026-02-27T01:10:20.487936","MEAN_MOTION":13.25827153,"ECCENTRICITY":0.00026886,"INCLINATION":87.8998,"RA_OF_ASC_NODE":248.8059,"ARG_OF_PERICENTER":94.2687,"MEAN_ANOMALY":265.8757,"EPHEMERIS_TYPE":0,"CLASSIFICATION_TYPE":"U","NORAD_CAT_ID":48968,"ELEMENT_SET_NO":999,"REV_AT_EPOCH":22562,"BSTAR":8.6925032e-5,"MEAN_MOTION_DOT":5.1e-7,"MEAN_MOTION_DDOT":0},{"OBJECT_NAME":"ONEWEB-0252","OBJECT_ID":"2021-060D","EPOCH":"2026-02-27T00:57:50.087520","MEAN_MOTION":13.16592069,"ECCENTRICITY":0.00013235,"INCLINATION":87.9004,"RA_OF_ASC_NODE":250.6863,"ARG_OF_PERICENTER":93.361,"MEAN_ANOMALY":266.7673,"EPHEMERIS_TYPE":0,"CLASSIFICATION_TYPE":"U","NORAD_CAT_ID":48970,"ELEMENT_SET_NO":999,"REV_AT_EPOCH":22516,"BSTAR":2.5648547e-5,"MEAN_MOTION_DOT":2.3e-7,"MEAN_MOTION_DDOT":0},{"OBJECT_NAME":"ONEWEB-0253","OBJECT_ID":"2021-060E","EPOCH":"2026-02-27T06:10:10.883424","MEAN_MOTION":13.16592803,"ECCENTRICITY":0.00015965,"INCLINATION":87.9,"RA_OF_ASC_NODE":250.6484,"ARG_OF_PERICENTER":99.268,"MEAN_ANOMALY":260.8632,"EPHEMERIS_TYPE":0,"CLASSIFICATION_TYPE":"U","NORAD_CAT_ID":48971,"ELEMENT_SET_NO":999,"REV_AT_EPOCH":22512,"BSTAR":-0.00012239901,"MEAN_MOTION_DOT":-3.4e-7,"MEAN_MOTION_DDOT":0},{"OBJECT_NAME":"ONEWEB-0254","OBJECT_ID":"2021-060F","EPOCH":"2026-02-27T00:55:33.202272","MEAN_MOTION":13.16592131,"ECCENTRICITY":0.00017208,"INCLINATION":87.9012,"RA_OF_ASC_NODE":250.6863,"ARG_OF_PERICENTER":103.1495,"MEAN_ANOMALY":256.9828,"EPHEMERIS_TYPE":0,"CLASSIFICATION_TYPE":"U","NORAD_CAT_ID":48972,"ELEMENT_SET_NO":999,"REV_AT_EPOCH":22509,"BSTAR":8.4492928e-5,"MEAN_MOTION_DOT":4.5e-7,"MEAN_MOTION_DDOT":0},{"OBJECT_NAME":"ONEWEB-0255","OBJECT_ID":"2021-060G","EPOCH":"2026-02-27T05:29:09.333600","MEAN_MOTION":13.16593025,"ECCENTRICITY":0.00016992,"INCLINATION":87.8997,"RA_OF_ASC_NODE":250.6582,"ARG_OF_PERICENTER":100.8229,"MEAN_ANOMALY":259.3094,"EPHEMERIS_TYPE":0,"CLASSIFICATION_TYPE":"U","NORAD_CAT_ID":48973,"ELEMENT_SET_NO":999,"REV_AT_EPOCH":22519,"BSTAR":4.3849753e-5,"MEAN_MOTION_DOT":3.0e-7,"MEAN_MOTION_DDOT":0},{"OBJECT_NAME":"ONEWEB-0256","OBJECT_ID":"2021-060H","EPOCH":"2026-02-27T06:06:46.026432","MEAN_MOTION":13.16592651,"ECCENTRICITY":0.0001506,"INCLINATION":87.9001,"RA_OF_ASC_NODE":250.6597,"ARG_OF_PERICENTER":90.9531,"MEAN_ANOMALY":269.1772,"EPHEMERIS_TYPE":0,"CLASSIFICATION_TYPE":"U","NORAD_CAT_ID":48974,"ELEMENT_SET_NO":999,"REV_AT_EPOCH":22516,"BSTAR":-3.802976e-5,"MEAN_MOTION_DOT":-2.0e-8,"MEAN_MOTION_DDOT":0},{"OBJECT_NAME":"ONEWEB-0257","OBJECT_ID":"2021-060J","EPOCH":"2026-02-27T01:25:11.475840","MEAN_MOTION":13.16592724,"ECCENTRICITY":0.00015992,"INCLINATION":87.8995,"RA_OF_ASC_NODE":250.6823,"ARG_OF_PERICENTER":102.8212,"MEAN_ANOMALY":257.3097,"EPHEMERIS_TYPE":0,"CLASSIFICATION_TYPE":"U","NORAD_CAT_ID":48975,"ELEMENT_SET_NO":999,"REV_AT_EPOCH":22509,"BSTAR":0.00039168408,"MEAN_MOTION_DOT":1.63e-6,"MEAN_MOTION_DDOT":0},{"OBJECT_NAME":"ONEWEB-0258","OBJECT_ID":"2021-060K","EPOCH":"2026-02-27T01:27:28.723104","MEAN_MOTION":13.16593189,"ECCENTRICITY":0.00016963,"INCLINATION":87.8999,"RA_OF_ASC_NODE":250.6941,"ARG_OF_PERICENTER":92.5597,"MEAN_ANOMALY":267.5728,"EPHEMERIS_TYPE":0,"CLASSIFICATION_TYPE":"U","NORAD_CAT_ID":48976,"ELEMENT_SET_NO":999,"REV_AT_EPOCH":22510,"BSTAR":0.0002176247,"MEAN_MOTION_DOT":9.6e-7,"MEAN_MOTION_DDOT":0},{"OBJECT_NAME":"ONEWEB-0259","OBJECT_ID":"2021-060L","EPOCH":"2026-02-27T01:18:20.954016","MEAN_MOTION":13.16593062,"ECCENTRICITY":0.00016356,"INCLINATION":87.9003,"RA_OF_ASC_NODE":250.6946,"ARG_OF_PERICENTER":95.4556,"MEAN_ANOMALY":264.6762,"EPHEMERIS_TYPE":0,"CLASSIFICATION_TYPE":"U","NORAD_CAT_ID":48977,"ELEMENT_SET_NO":999,"REV_AT_EPOCH":22513,"BSTAR":0.0003812248,"MEAN_MOTION_DOT":1.59e-6,"MEAN_MOTION_DDOT":0},{"OBJECT_NAME":"ONEWEB-0260","OBJECT_ID":"2021-060M","EPOCH":"2026-02-27T01:05:48.734880","MEAN_MOTION":13.16593308,"ECCENTRICITY":0.00011983,"INCLINATION":87.9,"RA_OF_ASC_NODE":250.7018,"ARG_OF_PERICENTER":87.6877,"MEAN_ANOMALY":272.4391,"EPHEMERIS_TYPE":0,"CLASSIFICATION_TYPE":"U","NORAD_CAT_ID":48978,"ELEMENT_SET_NO":999,"REV_AT_EPOCH":22511,"BSTAR":0.00015615202,"MEAN_MOTION_DOT":7.3e-7,"MEAN_MOTION_DDOT":0},{"OBJECT_NAME":"ONEWEB-0261","OBJECT_ID":"2021-060N","EPOCH":"2026-02-27T02:11:53.788128","MEAN_MOTION":13.16604754,"ECCENTRICITY":0.00019875,"INCLINATION":87.9033,"RA_OF_ASC_NODE":250.6958,"ARG_OF_PERICENTER":117.6438,"MEAN_ANOMALY":242.4895,"EPHEMERIS_TYPE":0,"CLASSIFICATION_TYPE":"U","NORAD_CAT_ID":48979,"ELEMENT_SET_NO":999,"REV_AT_EPOCH":22517,"BSTAR":0.0027371943,"MEAN_MOTION_DOT":1.06e-5,"MEAN_MOTION_DDOT":0},{"OBJECT_NAME":"ONEWEB-0262","OBJECT_ID":"2021-060P","EPOCH":"2026-02-27T05:22:18.473952","MEAN_MOTION":13.16592943,"ECCENTRICITY":0.00018681,"INCLINATION":87.9002,"RA_OF_ASC_NODE":250.6484,"ARG_OF_PERICENTER":97.8016,"MEAN_ANOMALY":262.3327,"EPHEMERIS_TYPE":0,"CLASSIFICATION_TYPE":"U","NORAD_CAT_ID":48980,"ELEMENT_SET_NO":999,"REV_AT_EPOCH":22515,"BSTAR":6.0525461e-5,"MEAN_MOTION_DOT":3.6e-7,"MEAN_MOTION_DDOT":0},{"OBJECT_NAME":"ONEWEB-0263","OBJECT_ID":"2021-060Q","EPOCH":"2026-02-27T06:07:53.543712","MEAN_MOTION":13.16592901,"ECCENTRICITY":0.00016932,"INCLINATION":87.9,"RA_OF_ASC_NODE":250.6537,"ARG_OF_PERICENTER":107.7544,"MEAN_ANOMALY":252.3772,"EPHEMERIS_TYPE":0,"CLASSIFICATION_TYPE":"U","NORAD_CAT_ID":48981,"ELEMENT_SET_NO":999,"REV_AT_EPOCH":22512,"BSTAR":-7.6196614e-5,"MEAN_MOTION_DOT":-1.6e-7,"MEAN_MOTION_DDOT":0},{"OBJECT_NAME":"ONEWEB-0264","OBJECT_ID":"2021-060R","EPOCH":"2026-02-27T01:33:09.805248","MEAN_MOTION":13.16596338,"ECCENTRICITY":0.00013661,"INCLINATION":87.9003,"RA_OF_ASC_NODE":250.6956,"ARG_OF_PERICENTER":99.8207,"MEAN_ANOMALY":260.3079,"EPHEMERIS_TYPE":0,"CLASSIFICATION_TYPE":"U","NORAD_CAT_ID":48982,"ELEMENT_SET_NO":999,"REV_AT_EPOCH":22510,"BSTAR":0.00022654903,"MEAN_MOTION_DOT":9.9e-7,"MEAN_MOTION_DDOT":0},{"OBJECT_NAME":"ONEWEB-0266","OBJECT_ID":"2021-060T","EPOCH":"2026-02-27T05:42:48.898080","MEAN_MOTION":13.16596041,"ECCENTRICITY":0.00017678,"INCLINATION":87.9003,"RA_OF_ASC_NODE":250.6501,"ARG_OF_PERICENTER":92.2561,"MEAN_ANOMALY":267.8772,"EPHEMERIS_TYPE":0,"CLASSIFICATION_TYPE":"U","NORAD_CAT_ID":48984,"ELEMENT_SET_NO":999,"REV_AT_EPOCH":22511,"BSTAR":-1.779696e-5,"MEAN_MOTION_DOT":6.0e-8,"MEAN_MOTION_DDOT":0}]
