ONEWEB-0239             
1 48802U 21045AM  26058.13988966  .00000177  00000+0  43476-3 0  9996
2 48802  87.8947 281.1811 0001962 111.3011 248.8329 13.15547012229878
ONEWEB-0249             
1 48967U 21060A   26058.23728618 -.00000025  00000+0 -97982-4 0  9998
2 48967  87.9006 250.6543 0001678  97.4249 262.7072 13.16593260225144
ONEWEB-0250             
1 48968U 21060B   26058.04884824  .00000051  00000+0  86925-4 0  9992
2 48968  87.8998 248.8059 0002688  94.2687 265.8757 13.25827153225626
ONEWEB-0252             
1 48970U 21060D   26058.04016305  .00000023  00000+0  25649-4 0  9991
2 48970  87.9004 250.6863 0001323  93.3610 266.7673 13.16592069225164
ONEWEB-0253             
1 48971U 21060E   26058.25707041 -.00000034  00000+0 -12240-3 0  9995
2 48971  87.9000 250.6484 0001596  99.2680 260.8632 13.16592803225126
ONEWEB-0254             
1 48972U 21060F   26058.03857873  .00000045  00000+0  84493-4 0  9991
2 48972  87.9012 250.6863 0001720 103.1495 256.9828 13.16592131225092
ONEWEB-0255             
1 48973U 21060G   26058.22858025  .00000030  00000+0  43850-4 0  9999
2 48973  87.8997 250.6582 0001699 100.8229 259.3094 13.16593025225192
ONEWEB-0256             
1 48974U 21060H   26058.25469938 -.00000002  00000+0 -38030-4 0  9999
2 48974  87.9001 250.6597 0001506  90.9531 269.1772 13.16592651225161
ONEWEB-0257             
1 48975U 21060J   26058.05916060  .00000163  00000+0  39168-3 0  9999
2 48975  87.8995 250.6823 0001599 102.8212 257.3097 13.16592724225098
ONEWEB-0258             
1 48976U 21060K   26058.06074911  .00000096  00000+0  21762-3 0  9997
2 48976  87.8999 250.6941 0001696  92.5597 267.5728 13.16593189225105
ONEWEB-0259             
1 48977U 21060L   26058.05440919  .00000159  00000+0  38122-3 0  9990
2 48977  87.9003 250.6946 0001635  95.4556 264.6762 13.16593062225137
ONEWEB-0260             
1 48978U 21060M   26058.04570295  .00000073  00000+0  15615-3 0  9998
2 48978  87.9000 250.7018 0001198  87.6877 272.4391 13.16593308225115
ONEWEB-0261             
1 48979U 21060N   26058.09159477  .00001060  00000+0  27372-2 0  9998
2 48979  87.9033 250.6958 0001987 117.6438 242.4895 13.16604754225177
ONEWEB-0262             
1 48980U 21060P   26058.22382493  .00000036  00000+0  60525-4 0  9992
2 48980  87.9002 250.6484 0001868  97.8016 262.3327 13.16592943225153
ONEWEB-0263             
1 48981U 21060Q   26058.25548083 -.00000016  00000+0 -76197-4 0  9997
2 48981  87.9000 250.6537 0001693 107.7544 252.3772 13.16592901225128
ONEWEB-0264             
1 48982U 21060R   26058.06469682  .00000099  00000+0  22655-3 0  9992
2 48982  87.9003 250.6956 0001366  99.8207 260.3079 13.16596338225106
ONEWEB-0266             
1 48984U 21060T   26058.23806595  .00000006  00000+0 -17797-4 0  9992
2 48984  87.9003 250.6501 0001767  92.2561 267.8772 13.16596041225113
